KUIPER-00629            
1 69783U 26151W   26190.83335647  .00023874  00000+0  66001-3 0  9994
2 69783  51.8743 206.3343 0007484 130.7409  92.4155 15.36882637  1513
KUIPER-00631            
1 69784U 26151X   26190.83335647  .00024246  00000+0  67496-3 0  9998
2 69784  51.8710 206.3479 0008041 137.9195  78.9850 15.36652922  1309
KUIPER-00634            
1 69785U 26151Y   26190.83335647  .00025281  00000+0  68159-3 0  9996
2 69785  51.8772 206.2884 0003805 120.1388 124.7180 15.37646152  1303
KUIPER-00639            
1 69786U 26151Z   26190.83335647  .00032581  00000+0  91992-3 0  9999
2 69786  51.8686 206.3715 0009722 142.6020  62.9515 15.36036667  1306
KUIPER-00641            
1 69787U 26151AA  26190.83335647  .00020225  00000+0  59094-3 0  9999
2 69787  51.8672 206.3941 0010962 146.2289  47.8337 15.35226793  1829
KUIPER-00644            
1 69788U 26151AB  26190.83335647  .00023551  00000+0  65971-3 0  9996
2 69788  51.8735 206.3575 0008731 140.5786  71.3179 15.36470870  2121
KUIPER-00646            
1 69789U 26151AC  26190.83335647  .00023336  00000+0  66116-3 0  9990
2 69789  51.8698 206.3676 0009968 144.0324  62.9866 15.36110614  1307
KUIPER-00647            
1 69790U 26151AD  26190.83335647  .00014474  00000+0  41999-3 0  9997
2 69790  51.8660 206.3923 0010548 146.5281  48.3835 15.35707862  1960
KUIPER-00662            
1 69791U 26151AE  26190.83335647  .00024205  00000+0  67563-3 0  9996
2 69791  51.8723 206.3526 0008679 135.4576  79.0165 15.36564964  1306
