{"fetched_at":"2026-07-10T07:58:39.953Z","source":"https://celestrak.org/NORAD/elements/gp.php?GROUP=kuiper&FORMAT=JSON","constellation":"kuiper","records":[{"OBJECT_NAME":"KUIPER-00629","OBJECT_ID":"2026-151W","EPOCH":"2026-07-09T20:00:01.999008","CLASSIFICATION_TYPE":"U","MEAN_MOTION":15.36882637,"ECCENTRICITY":0.0007484,"INCLINATION":51.8743,"RA_OF_ASC_NODE":206.3343,"ARG_OF_PERICENTER":130.7409,"MEAN_ANOMALY":92.4155,"EPHEMERIS_TYPE":0,"NORAD_CAT_ID":69783,"ELEMENT_SET_NO":999,"REV_AT_EPOCH":151,"BSTAR":0.00066001,"MEAN_MOTION_DOT":0.00023874,"MEAN_MOTION_DDOT":0},{"OBJECT_NAME":"KUIPER-00631","OBJECT_ID":"2026-151X","EPOCH":"2026-07-09T20:00:01.999008","CLASSIFICATION_TYPE":"U","MEAN_MOTION":15.36652922,"ECCENTRICITY":0.0008041,"INCLINATION":51.871,"RA_OF_ASC_NODE":206.3479,"ARG_OF_PERICENTER":137.9195,"MEAN_ANOMALY":78.985,"EPHEMERIS_TYPE":0,"NORAD_CAT_ID":69784,"ELEMENT_SET_NO":999,"REV_AT_EPOCH":130,"BSTAR":0.00067496,"MEAN_MOTION_DOT":0.00024246,"MEAN_MOTION_DDOT":0},{"OBJECT_NAME":"KUIPER-00634","OBJECT_ID":"2026-151Y","EPOCH":"2026-07-09T20:00:01.999008","CLASSIFICATION_TYPE":"U","MEAN_MOTION":15.37646152,"ECCENTRICITY":0.0003805,"INCLINATION":51.8772,"RA_OF_ASC_NODE":206.2884,"ARG_OF_PERICENTER":120.1388,"MEAN_ANOMALY":124.718,"EPHEMERIS_TYPE":0,"NORAD_CAT_ID":69785,"ELEMENT_SET_NO":999,"REV_AT_EPOCH":130,"BSTAR":0.00068159,"MEAN_MOTION_DOT":0.00025281,"MEAN_MOTION_DDOT":0},{"OBJECT_NAME":"KUIPER-00639","OBJECT_ID":"2026-151Z","EPOCH":"2026-07-09T20:00:01.999008","CLASSIFICATION_TYPE":"U","MEAN_MOTION":15.36036667,"ECCENTRICITY":0.0009722,"INCLINATION":51.8686,"RA_OF_ASC_NODE":206.3715,"ARG_OF_PERICENTER":142.602,"MEAN_ANOMALY":62.9515,"EPHEMERIS_TYPE":0,"NORAD_CAT_ID":69786,"ELEMENT_SET_NO":999,"REV_AT_EPOCH":130,"BSTAR":0.00091992,"MEAN_MOTION_DOT":0.00032581,"MEAN_MOTION_DDOT":0},{"OBJECT_NAME":"KUIPER-00641","OBJECT_ID":"2026-151AA","EPOCH":"2026-07-09T20:00:01.999008","CLASSIFICATION_TYPE":"U","MEAN_MOTION":15.35226793,"ECCENTRICITY":0.0010962,"INCLINATION":51.8672,"RA_OF_ASC_NODE":206.3941,"ARG_OF_PERICENTER":146.2289,"MEAN_ANOMALY":47.8337,"EPHEMERIS_TYPE":0,"NORAD_CAT_ID":69787,"ELEMENT_SET_NO":999,"REV_AT_EPOCH":182,"BSTAR":0.00059094,"MEAN_MOTION_DOT":0.00020225,"MEAN_MOTION_DDOT":0},{"OBJECT_NAME":"KUIPER-00644","OBJECT_ID":"2026-151AB","EPOCH":"2026-07-09T20:00:01.999008","CLASSIFICATION_TYPE":"U","MEAN_MOTION":15.3647087,"ECCENTRICITY":0.0008731,"INCLINATION":51.8735,"RA_OF_ASC_NODE":206.3575,"ARG_OF_PERICENTER":140.5786,"MEAN_ANOMALY":71.3179,"EPHEMERIS_TYPE":0,"NORAD_CAT_ID":69788,"ELEMENT_SET_NO":999,"REV_AT_EPOCH":212,"BSTAR":0.00065971,"MEAN_MOTION_DOT":0.00023551,"MEAN_MOTION_DDOT":0},{"OBJECT_NAME":"KUIPER-00646","OBJECT_ID":"2026-151AC","EPOCH":"2026-07-09T20:00:01.999008","CLASSIFICATION_TYPE":"U","MEAN_MOTION":15.36110614,"ECCENTRICITY":0.0009968,"INCLINATION":51.8698,"RA_OF_ASC_NODE":206.3676,"ARG_OF_PERICENTER":144.0324,"MEAN_ANOMALY":62.9866,"EPHEMERIS_TYPE":0,"NORAD_CAT_ID":69789,"ELEMENT_SET_NO":999,"REV_AT_EPOCH":130,"BSTAR":0.00066116,"MEAN_MOTION_DOT":0.00023336,"MEAN_MOTION_DDOT":0},{"OBJECT_NAME":"KUIPER-00647","OBJECT_ID":"2026-151AD","EPOCH":"2026-07-09T20:00:01.999008","CLASSIFICATION_TYPE":"U","MEAN_MOTION":15.35707862,"ECCENTRICITY":0.0010548,"INCLINATION":51.866,"RA_OF_ASC_NODE":206.3923,"ARG_OF_PERICENTER":146.5281,"MEAN_ANOMALY":48.3835,"EPHEMERIS_TYPE":0,"NORAD_CAT_ID":69790,"ELEMENT_SET_NO":999,"REV_AT_EPOCH":196,"BSTAR":0.00041999,"MEAN_MOTION_DOT":0.00014474,"MEAN_MOTION_DDOT":0},{"OBJECT_NAME":"KUIPER-00662","OBJECT_ID":"2026-151AE","EPOCH":"2026-07-09T20:00:01.999008","CLASSIFICATION_TYPE":"U","MEAN_MOTION":15.36564964,"ECCENTRICITY":0.0008679,"INCLINATION":51.8723,"RA_OF_ASC_NODE":206.3526,"ARG_OF_PERICENTER":135.4576,"MEAN_ANOMALY":79.0165,"EPHEMERIS_TYPE":0,"NORAD_CAT_ID":69791,"ELEMENT_SET_NO":999,"REV_AT_EPOCH":130,"BSTAR":0.00067563,"MEAN_MOTION_DOT":0.00024205,"MEAN_MOTION_DDOT":0}]}
